{
  "type": "FeatureCollection",
  "name": "Munster_Post_HighSchool_Education",
  "features": [
    {
      "type": "Feature",
      "properties": {
        "name": "Universität Münster (Universidad de Münster)",
        "type": "University",
        "description": "Una de las universidades más grandes e históricas de Alemania, con fuerte enfoque en investigación, medicina, leyes y ciencias.",
        "address": "Schlossplatz 2, 48149 Münster"
      },
      "geometry": {
        "type": "Point",
        "coordinates": [7.6133, 51.9636]
      }
    },
    {
      "type": "Feature",
      "properties": {
        "name": "FH Münster - University of Applied Sciences",
        "type": "University of Applied Sciences (Fachhochschule)",
        "description": "Enfoque práctico avanzado. Carreras en ingeniería, diseño, arquitectura, economía y salud.",
        "address": "Hüfferstraße 27, 48149 Münster"
      },
      "geometry": {
        "type": "Point",
        "coordinates": [7.6074, 51.9589]
      }
    },
    {
      "type": "Feature",
      "properties": {
        "name": "Kunstakademie Münster",
        "type": "Art Academy",
        "description": "Academia Superior de Bellas Artes. Institución de rango universitario enfocada exclusivamente en artes visuales y pedagogía del arte.",
        "address": "Leonardo-Campus 2, 48149 Münster"
      },
      "geometry": {
        "type": "Point",
        "coordinates": [7.5992, 51.9723]
      }
    },
    {
      "type": "Feature",
      "properties": {
        "name": "Adolph-Kolping-Berufskolleg",
        "type": "Vocational College / Higher Technical School",
        "description": "Centro superior de formación técnica y profesional enfocado en Artes Gráficas, Medios, Diseño y Tecnología de la Construcción.",
        "address": "Lotharingerstraße 30, 48147 Münster"
      },
      "geometry": {
        "type": "Point",
        "coordinates": [7.6324, 51.9641]
      }
    },
    {
      "type": "Feature",
      "properties": {
        "name": "Ludwig-Erhard-Berufskolleg",
        "type": "Vocational College / Higher Technical School",
        "description": "Especializado en la rama de Economía, Gestión Comercial, Administración de Empresas, Logística e Informática de Negocios.",
        "address": "Gut Insel 41, 48151 Münster"
      },
      "geometry": {
        "type": "Point",
        "coordinates": [7.6115, 51.9348]
      }
    },
    {
      "type": "Feature",
      "properties": {
        "name": "Hans-Böckler-Berufskolleg",
        "type": "Vocational College / Higher Technical School",
        "description": "Colegio vocacional enfocado en Ingenierías Técnicas, Química, Informática Aplicada, Electrónica y Pedagogía Social.",
        "address": "Hoffschultestraße 25, 48155 Münster"
      },
      "geometry": {
        "type": "Point",
        "coordinates": [7.6533, 51.9515]
      }
    },
    {
      "type": "Feature",
      "properties": {
        "name": "Hansa-Berufskolleg",
        "type": "Vocational College / Higher Technical School",
        "description": "Especializado en formación en áreas comerciales, bancarias, seguros, servicios de salud administrativos y comercio exterior.",
        "address": "Hansaring 80, 48155 Münster"
      },
      "geometry": {
        "type": "Point",
        "coordinates": [7.6438, 51.9502]
      }
    },
    {
      "type": "Feature",
      "properties": {
        "name": "Anne-Frank-Berufskolleg",
        "type": "Vocational College / Higher Technical School",
        "description": "Enfoque principal en Trabajo Social, Salud, Nutrición y Ciencias del Cuidado Humano Avanzado.",
        "address": "Manfred-von-Richthofen-Straße 39, 48145 Münster"
      },
      "geometry": {
        "type": "Point",
        "coordinates": [7.6475, 51.9609]
      }
    }
  ]
}