{
  "type": "FeatureCollection",
  "name": "Muenster_45_Barrios_Dummy",
  "features": [
    {"type": "Feature", "properties": {"id": 11, "name": "Altstadt", "income_per_capita_eur": 31000, "happiness_score": 8.9, "bike_infra_satisfaction": "High"}, "geometry": {"type": "Polygon", "coordinates": [[[7.62, 51.96], [7.63, 51.96], [7.63, 51.95], [7.62, 51.95], [7.62, 51.96]]]}},
    {"type": "Feature", "properties": {"id": 12, "name": "Schlossviertel", "income_per_capita_eur": 28500, "happiness_score": 8.7, "bike_infra_satisfaction": "High"}, "geometry": {"type": "Polygon", "coordinates": [[[7.60, 51.96], [7.62, 51.96], [7.62, 51.95], [7.60, 51.95], [7.60, 51.96]]]}},
    {"type": "Feature", "properties": {"id": 13, "name": "Aaseestadt", "income_per_capita_eur": 36000, "happiness_score": 9.1, "bike_infra_satisfaction": "High"}, "geometry": {"type": "Polygon", "coordinates": [[[7.59, 51.95], [7.61, 51.95], [7.61, 51.94], [7.59, 51.94], [7.59, 51.95]]]}},
    {"type": "Feature", "properties": {"id": 14, "name": "Pluggendorf", "income_per_capita_eur": 29000, "happiness_score": 8.2, "bike_infra_satisfaction": "High"}, "geometry": {"type": "Polygon", "coordinates": [[[7.61, 51.95], [7.62, 51.95], [7.62, 51.94], [7.61, 51.94], [7.61, 51.95]]]}},
    {"type": "Feature", "properties": {"id": 15, "name": "Südviertel", "income_per_capita_eur": 30500, "happiness_score": 8.4, "bike_infra_satisfaction": "Medium"}, "geometry": {"type": "Polygon", "coordinates": [[[7.62, 51.94], [7.63, 51.94], [7.63, 51.93], [7.62, 51.93], [7.62, 51.94]]]}},
    {"type": "Feature", "properties": {"id": 16, "name": "Erphoviertel", "income_per_capita_eur": 32000, "happiness_score": 8.5, "bike_infra_satisfaction": "High"}, "geometry": {"type": "Polygon", "coordinates": [[[7.64, 51.96], [7.65, 51.96], [7.65, 51.95], [7.64, 51.95], [7.64, 51.96]]]}},
    {"type": "Feature", "properties": {"id": 17, "name": "Mauritz-West", "income_per_capita_eur": 34500, "happiness_score": 8.6, "bike_infra_satisfaction": "High"}, "geometry": {"type": "Polygon", "coordinates": [[[7.65, 51.96], [7.66, 51.96], [7.66, 51.95], [7.65, 51.95], [7.65, 51.96]]]}},
    {"type": "Feature", "properties": {"id": 18, "name": "Rumphorst", "income_per_capita_eur": 27000, "happiness_score": 7.8, "bike_infra_satisfaction": "Medium"}, "geometry": {"type": "Polygon", "coordinates": [[[7.63, 51.98], [7.64, 51.98], [7.64, 51.97], [7.63, 51.97], [7.63, 51.98]]]}},
    {"type": "Feature", "properties": {"id": 19, "name": "Kreuzviertel", "income_per_capita_eur": 33000, "happiness_score": 9.0, "bike_infra_satisfaction": "High"}, "geometry": {"type": "Polygon", "coordinates": [[[7.62, 51.97], [7.63, 51.97], [7.63, 51.96], [7.62, 51.96], [7.62, 51.97]]]}},
    {"type": "Feature", "properties": {"id": 21, "name": "Coerde", "income_per_capita_eur": 23000, "happiness_score": 6.9, "bike_infra_satisfaction": "Medium"}, "geometry": {"type": "Polygon", "coordinates": [[[7.63, 52.00], [7.65, 52.00], [7.65, 51.99], [7.63, 51.99], [7.63, 52.00]]]}},
    {"type": "Feature", "properties": {"id": 22, "name": "Kinderhaus-West", "income_per_capita_eur": 24500, "happiness_score": 7.1, "bike_infra_satisfaction": "Medium"}, "geometry": {"type": "Polygon", "coordinates": [[[7.59, 52.00], [7.61, 52.00], [7.61, 51.99], [7.59, 51.99], [7.59, 52.00]]]}},
    {"type": "Feature", "properties": {"id": 23, "name": "Kinderhaus-Ost", "income_per_capita_eur": 24000, "happiness_score": 7.0, "bike_infra_satisfaction": "Medium"}, "geometry": {"type": "Polygon", "coordinates": [[[7.61, 52.00], [7.62, 52.00], [7.62, 51.99], [7.61, 51.99], [7.61, 52.00]]]}},
    {"type": "Feature", "properties": {"id": 24, "name": "Sprakel", "income_per_capita_eur": 28000, "happiness_score": 7.9, "bike_infra_satisfaction": "Low"}, "geometry": {"type": "Polygon", "coordinates": [[[7.60, 52.04], [7.62, 52.04], [7.62, 52.02], [7.60, 52.02], [7.60, 52.04]]]}},
    {"type": "Feature", "properties": {"id": 31, "name": "Handorf", "income_per_capita_eur": 35000, "happiness_score": 8.4, "bike_infra_satisfaction": "High"}, "geometry": {"type": "Polygon", "coordinates": [[[7.69, 51.98], [7.72, 51.98], [7.72, 51.96], [7.69, 51.96], [7.69, 51.98]]]}},
    {"type": "Feature", "properties": {"id": 32, "name": "Gelmer", "income_per_capita_eur": 29000, "happiness_score": 7.6, "bike_infra_satisfaction": "Low"}, "geometry": {"type": "Polygon", "coordinates": [[[7.66, 52.01], [7.68, 52.01], [7.68, 51.99], [7.66, 51.99], [7.66, 52.01]]]}},
    {"type": "Feature", "properties": {"id": 33, "name": "Mauritz-Ost", "income_per_capita_eur": 33500, "happiness_score": 8.3, "bike_infra_satisfaction": "High"}, "geometry": {"type": "Polygon", "coordinates": [[[7.66, 51.95], [7.68, 51.95], [7.68, 51.94], [7.66, 51.94], [7.66, 51.95]]]}},
    {"type": "Feature", "properties": {"id": 41, "name": "Gremmendorf-West", "income_per_capita_eur": 31000, "happiness_score": 8.0, "bike_infra_satisfaction": "Medium"}, "geometry": {"type": "Polygon", "coordinates": [[[7.65, 51.93], [7.67, 51.93], [7.67, 51.92], [7.65, 51.92], [7.65, 51.93]]]}},
    {"type": "Feature", "properties": {"id": 42, "name": "Gremmendorf-Ost", "income_per_capita_eur": 30000, "happiness_score": 7.9, "bike_infra_satisfaction": "Medium"}, "geometry": {"type": "Polygon", "coordinates": [[[7.67, 51.93], [7.69, 51.93], [7.69, 51.92], [7.67, 51.92], [7.67, 51.93]]]}},
    {"type": "Feature", "properties": {"id": 43, "name": "Angelmodde", "income_per_capita_eur": 32000, "happiness_score": 8.2, "bike_infra_satisfaction": "Medium"}, "geometry": {"type": "Polygon", "coordinates": [[[7.68, 51.91], [7.70, 51.91], [7.70, 51.90], [7.68, 51.90], [7.68, 51.91]]]}},
    {"type": "Feature", "properties": {"id": 44, "name": "Wolbeck", "income_per_capita_eur": 34000, "happiness_score": 8.5, "bike_infra_satisfaction": "High"}, "geometry": {"type": "Polygon", "coordinates": [[[7.72, 51.92], [7.75, 51.92], [7.75, 51.90], [7.72, 51.90], [7.72, 51.92]]]}},
    {"type": "Feature", "properties": {"id": 51, "name": "Hiltrup-Ost", "income_per_capita_eur": 29500, "happiness_score": 7.8, "bike_infra_satisfaction": "Medium"}, "geometry": {"type": "Polygon", "coordinates": [[[7.65, 51.90], [7.67, 51.90], [7.67, 51.89], [7.65, 51.89], [7.65, 51.90]]]}},
    {"type": "Feature", "properties": {"id": 52, "name": "Hiltrup-Mitte", "income_per_capita_eur": 30000, "happiness_score": 8.1, "bike_infra_satisfaction": "High"}, "geometry": {"type": "Polygon", "coordinates": [[[7.63, 51.90], [7.65, 51.90], [7.65, 51.89], [7.63, 51.89], [7.63, 51.90]]]}},
    {"type": "Feature", "properties": {"id": 53, "name": "Hiltrup-West", "income_per_capita_eur": 31500, "happiness_score": 8.2, "bike_infra_satisfaction": "High"}, "geometry": {"type": "Polygon", "coordinates": [[[7.61, 51.90], [7.63, 51.90], [7.63, 51.89], [7.61, 51.89], [7.61, 51.90]]]}},
    {"type": "Feature", "properties": {"id": 54, "name": "Amelsbüren", "income_per_capita_eur": 33000, "happiness_score": 8.3, "bike_infra_satisfaction": "Medium"}, "geometry": {"type": "Polygon", "coordinates": [[[7.60, 51.87], [7.63, 51.87], [7.63, 51.85], [7.60, 51.85], [7.60, 51.87]]]}},
    {"type": "Feature", "properties": {"id": 61, "name": "Berg Fidel", "income_per_capita_eur": 22500, "happiness_score": 6.8, "bike_infra_satisfaction": "Low"}, "geometry": {"type": "Polygon", "coordinates": [[[7.62, 51.92], [7.63, 51.92], [7.63, 51.91], [7.62, 51.91], [7.62, 51.92]]]}},
    {"type": "Feature", "properties": {"id": 62, "name": "Mecklenbeck", "income_per_capita_eur": 28000, "happiness_score": 7.7, "bike_infra_satisfaction": "Medium"}, "geometry": {"type": "Polygon", "coordinates": [[[7.57, 51.93], [7.59, 51.93], [7.59, 51.92], [7.57, 51.92], [7.57, 51.93]]]}},
    {"type": "Feature", "properties": {"id": 63, "name": "Roxel", "income_per_capita_eur": 31000, "happiness_score": 8.0, "bike_infra_satisfaction": "Medium"}, "geometry": {"type": "Polygon", "coordinates": [[[7.52, 51.95], [7.55, 51.95], [7.55, 51.93], [7.52, 51.93], [7.52, 51.95]]]}},
    {"type": "Feature", "properties": {"id": 64, "name": "Nienberge", "income_per_capita_eur": 33500, "happiness_score": 8.2, "bike_infra_satisfaction": "Medium"}, "geometry": {"type": "Polygon", "coordinates": [[[7.54, 52.00], [7.57, 52.00], [7.57, 51.98], [7.54, 51.98], [7.54, 52.00]]]}},
    {"type": "Feature", "properties": {"id": 65, "name": "Gievenbeck", "income_per_capita_eur": 27500, "happiness_score": 8.6, "bike_infra_satisfaction": "High"}, "geometry": {"type": "Polygon", "coordinates": [[[7.56, 51.96], [7.59, 51.96], [7.59, 51.95], [7.56, 51.95], [7.56, 51.96]]]}},
    {"type": "Feature", "properties": {"id": 66, "name": "Sentruper Höhe", "income_per_capita_eur": 45000, "happiness_score": 9.4, "bike_infra_satisfaction": "High"}, "geometry": {"type": "Polygon", "coordinates": [[[7.59, 51.96], [7.61, 51.96], [7.61, 51.95], [7.59, 51.95], [7.59, 51.96]]]}},
    {"type": "Feature", "properties": {"id": 71, "name": "Gerviertel", "income_per_capita_eur": 29000, "happiness_score": 8.1, "bike_infra_satisfaction": "High"}, "geometry": {"type": "Polygon", "coordinates": [[[7.63, 51.95], [7.64, 51.95], [7.64, 51.94], [7.63, 51.94], [7.63, 51.95]]]}},
    {"type": "Feature", "properties": {"id": 72, "name": "Hansaviertel", "income_per_capita_eur": 26500, "happiness_score": 8.3, "bike_infra_satisfaction": "High"}, "geometry": {"type": "Polygon", "coordinates": [[[7.64, 51.95], [7.65, 51.95], [7.65, 51.94], [7.64, 51.94], [7.64, 51.95]]]}},
    {"type": "Feature", "properties": {"id": 73, "name": "Hafen", "income_per_capita_eur": 28000, "happiness_score": 8.5, "bike_infra_satisfaction": "High"}, "geometry": {"type": "Polygon", "coordinates": [[[7.64, 51.94], [7.65, 51.94], [7.65, 51.93], [7.64, 51.93], [7.64, 51.94]]]}},
    {"type": "Feature", "properties": {"id": 74, "name": "Herz-Jesu", "income_per_capita_eur": 31500, "happiness_score": 8.4, "bike_infra_satisfaction": "High"}, "geometry": {"type": "Polygon", "coordinates": [[[7.65, 51.95], [7.66, 51.95], [7.66, 51.94], [7.65, 51.94], [7.65, 51.95]]]}},
    {"type": "Feature", "properties": {"id": 75, "name": "Mauritz-Mitte", "income_per_capita_eur": 34000, "happiness_score": 8.5, "bike_infra_satisfaction": "High"}, "geometry": {"type": "Polygon", "coordinates": [[[7.64, 51.96], [7.65, 51.96], [7.65, 51.95], [7.64, 51.95], [7.64, 51.96]]]}},
    {"type": "Feature", "properties": {"id": 76, "name": "Uppenberg", "income_per_capita_eur": 26000, "happiness_score": 7.9, "bike_infra_satisfaction": "Medium"}, "geometry": {"type": "Polygon", "coordinates": [[[7.61, 51.98], [7.62, 51.98], [7.62, 51.97], [7.61, 51.97], [7.61, 51.98]]]}},
    {"type": "Feature", "properties": {"id": 77, "name": "Neutor", "income_per_capita_eur": 28000, "happiness_score": 8.4, "bike_infra_satisfaction": "High"}, "geometry": {"type": "Polygon", "coordinates": [[[7.61, 51.97], [7.62, 51.97], [7.62, 51.96], [7.61, 51.96], [7.61, 51.97]]]}},
    {"type": "Feature", "properties": {"id": 78, "name": "Schlachthof", "income_per_capita_eur": 27000, "happiness_score": 7.8, "bike_infra_satisfaction": "Medium"}, "geometry": {"type": "Polygon", "coordinates": [[[7.62, 51.98], [7.63, 51.98], [7.63, 51.97], [7.62, 51.97], [7.62, 51.98]]]}},
    {"type": "Feature", "properties": {"id": 81, "name": "Loddenheide", "income_per_capita_eur": 25000, "happiness_score": 7.2, "bike_infra_satisfaction": "Medium"}, "geometry": {"type": "Polygon", "coordinates": [[[7.64, 51.93], [7.66, 51.93], [7.66, 51.92], [7.64, 51.92], [7.64, 51.93]]]}},
    {"type": "Feature", "properties": {"id": 82, "name": "Gievenbeck-Süd", "income_per_capita_eur": 28000, "happiness_score": 8.5, "bike_infra_satisfaction": "High"}, "geometry": {"type": "Polygon", "coordinates": [[[7.56, 51.95], [7.58, 51.95], [7.58, 51.94], [7.56, 51.94], [7.56, 51.95]]]}},
    {"type": "Feature", "properties": {"id": 83, "name": "Mecklenbeck-Nord", "income_per_capita_eur": 29000, "happiness_score": 7.9, "bike_infra_satisfaction": "Medium"}, "geometry": {"type": "Polygon", "coordinates": [[[7.57, 51.94], [7.59, 51.94], [7.59, 51.93], [7.57, 51.93], [7.57, 51.94]]]}},
    {"type": "Feature", "properties": {"id": 84, "name": "Albachten", "income_per_capita_eur": 32500, "happiness_score": 8.1, "bike_infra_satisfaction": "Medium"}, "geometry": {"type": "Polygon", "coordinates": [[[7.51, 51.92], [7.54, 51.92], [7.54, 51.90], [7.51, 51.90], [7.51, 51.92]]]}},
    {"type": "Feature", "properties": {"id": 85, "name": "Nienberge-Ost", "income_per_capita_eur": 34000, "happiness_score": 8.3, "bike_infra_satisfaction": "Medium"}, "geometry": {"type": "Polygon", "coordinates": [[[7.56, 52.00], [7.58, 52.00], [7.58, 51.99], [7.56, 51.99], [7.56, 52.00]]]}},
    {"type": "Feature", "properties": {"id": 86, "name": "Kinderhaus-Nord", "income_per_capita_eur": 23500, "happiness_score": 6.8, "bike_infra_satisfaction": "Low"}, "geometry": {"type": "Polygon", "coordinates": [[[7.60, 52.01], [7.62, 52.01], [7.62, 52.00], [7.60, 52.00], [7.60, 52.01]]]}},
    {"type": "Feature", "properties": {"id": 87, "name": "Dyckburg", "income_per_capita_eur": 39000, "happiness_score": 8.8, "bike_infra_satisfaction": "Medium"}, "geometry": {"type": "Polygon", "coordinates": [[[7.67, 51.98], [7.69, 51.98], [7.69, 51.96], [7.67, 51.96], [7.67, 51.98]]]}}
  ]
}