{
"type": "FeatureCollection",
"name": "ies_munster",
"crs": { "type": "name", "properties": { "name": "urn:ogc:def:crs:OGC:1.3:CRS84" } },
"features": [
{ "type": "Feature", "properties": { "name": "University of Münster (Main Campus)", "type": "Research University" }, "geometry": { "type": "Point", "coordinates": [ 7.613, 51.964 ] } },
{ "type": "Feature", "properties": { "name": "FH Münster - Leonardo Campus", "type": "Applied Sciences" }, "geometry": { "type": "Point", "coordinates": [ 7.605, 51.955 ] } },
{ "type": "Feature", "properties": { "name": "FH Münster - Corrensstrasse Campus", "type": "Applied Sciences" }, "geometry": { "type": "Point", "coordinates": [ 7.62, 51.97 ] } }
]
}
